OBJECT_NAME,OBJECT_ID,EPOCH,MEAN_MOTION,ECCENTRICITY,INCLINATION,RA_OF_ASC_NODE,ARG_OF_PERICENTER,MEAN_ANOMALY,EPHEMERIS_TYPE,CLASSIFICATION_TYPE,NORAD_CAT_ID,ELEMENT_SET_NO,REV_AT_EPOCH,BSTAR,MEAN_MOTION_DOT,MEAN_MOTION_DDOT
SKYSAT-C1,2016-040C,2026-06-11T21:00:18.363456,15.36210820,.00038959,96.9571,194.8831,68.4329,291.7331,0,U,41601,999,55705,.23586392E-3,.8251E-4,0
LAPAN-A3,2016-040E,2026-06-11T23:16:08.736384,15.33071611,.00114611,97.1483,159.2866,42.9875,317.2261,0,U,41603,999,55401,.10107528E-3,.3159E-4,0
GAOFEN-3,2016-049A,2026-06-11T22:48:00.148608,14.42214390,.00012823,98.4014,170.8148,99.6147,260.5187,0,U,41727,999,51789,-.26794903E-4,-.132E-5,0
SKYSAT-C4,2016-058B,2026-06-11T23:14:47.168736,15.48424106,.00009911,96.9177,184.9596,117.9862,242.1491,0,U,41771,999,54466,.29124828E-3,.1537E-3,0
SKYSAT-C5,2016-058C,2026-06-11T16:35:22.666848,15.34391815,.00016168,97.0478,203.5767,351.6137,8.5079,0,U,41772,999,54290,.21301797E-3,.702E-4,0
SKYSAT-C2,2016-058D,2026-06-11T19:24:03.159360,15.41948031,.00050287,97.0174,185.1057,82.5732,277.6088,0,U,41773,999,54422,.26862097E-3,.11357E-3,0
SKYSAT-C3,2016-058E,2026-06-11T12:51:07.340832,15.52297681,.0001751,96.9012,193.6007,86.2844,273.8610,0,U,41774,999,54523,.3399E-3,.206E-3,0
ALSAT-1B,2016-059C,2026-06-12T00:10:04.374048,14.72272044,.00078266,97.7753,171.9944,239.2363,120.8075,0,U,41785,999,51981,.10573405E-3,.621E-5,0
PATHFINDER 1,2016-059E,2026-06-11T22:55:18.840288,14.67657157,.00274202,97.8166,162.4674,220.7547,139.1608,0,U,41787,999,51894,.90093517E-4,.468E-5,0
SCATSAT 1,2016-059H,2026-06-11T17:38:40.829856,14.79514080,.00532513,98.1191,226.4449,265.5339,93.9787,0,U,41790,999,10078,.12282244E-3,.882E-5,0
GOKTURK 1A,2016-073A,2026-06-11T21:50:43.039968,14.62771087,.00014543,98.1260,57.6673,77.7485,282.3879,0,U,41875,999,50805,.88724511E-4,.406E-5,0
RESOURCESAT-2A,2016-074A,2026-06-11T22:23:22.598880,14.21613628,.00033752,98.7527,236.4800,93.4390,266.7173,0,U,41877,999,49355,-.82144267E-4,-.224E-5,0
CARTOSAT-2D,2017-008A,2026-06-11T22:55:40.695168,15.19293103,.00035799,97.4117,222.3587,253.9327,106.1514,0,U,41948,999,51678,.15912297E-3,.329E-4,0
SENTINEL-2B,2017-013A,2026-06-11T23:06:20.047392,14.30815329,.00011903,98.5692,237.8107,86.8052,273.3267,0,U,42063,999,48389,.35937329E-4,.51E-6,0
FORMOSAT-5,2017-049A,2026-06-11T21:08:08.105568,14.50896839,.00127042,98.2253,238.3081,98.9587,261.3046,0,U,42920,999,46590,.40450204E-4,.116E-5,0
SENTINEL-5P,2017-064A,2026-06-11T18:35:13.115904,14.19518071,.00009833,98.7925,104.9442,83.5651,276.5637,0,U,42969,999,44879,.30960852E-4,.21E-6,0
SKYSAT-C11,2017-068A,2026-06-11T22:02:24.099072,15.57622956,.000087,97.4339,311.5213,88.8932,271.2423,0,U,42987,999,48242,.33268148E-3,.24501E-3,0
SKYSAT-C10,2017-068B,2026-06-11T21:07:35.546592,15.34549133,.00011914,97.4491,299.6765,93.5302,266.6078,0,U,42988,999,48154,.25747301E-3,.8538E-4,0
SKYSAT-C9,2017-068C,2026-06-11T21:59:02.889888,15.41431460,.00091658,97.4411,300.5973,149.7724,210.4053,0,U,42989,999,48194,.29836984E-3,.12415E-3,0
SKYSAT-C8,2017-068D,2026-06-11T22:11:40.715520,15.36873362,.00015245,97.4507,299.5011,97.0861,263.0557,0,U,42990,999,48150,.27305407E-3,.9762E-4,0
SKYSAT-C7,2017-068E,2026-06-11T20:28:28.687584,15.36820746,.00071332,97.4520,300.4177,122.0176,238.1762,0,U,42991,999,48155,.27860622E-3,.9952E-4,0
SKYSAT-C6,2017-068F,2026-06-11T22:17:31.773408,15.34119693,.00041842,97.4555,300.4834,151.0953,209.0522,0,U,42992,999,48151,.25907424E-3,.8476E-4,0
CARTOSAT-2F,2018-004A,2026-06-11T22:32:23.178624,15.19172174,.00003064,97.4796,222.6246,289.5049,70.6152,0,U,43111,999,46653,.15012068E-3,.3088E-4,0
GAOFEN-1 02,2018-031A,2026-06-11T22:40:13.459872,14.76449319,.00041395,98.0531,225.4862,46.5089,313.6465,0,U,43259,999,44192,.74700767E-4,.468E-5,0
GAOFEN-1 03,2018-031B,2026-06-11T22:08:49.185600,14.76461451,.00038161,98.0524,225.3234,89.5483,270.6164,0,U,43260,999,44191,.93046971E-4,.596E-5,0
GAOFEN-1 04,2018-031D,2026-06-11T23:11:24.986688,14.76471152,.0002258,98.0533,225.5566,87.1618,272.9850,0,U,43262,999,44191,.60821077E-4,.372E-5,0
SENTINEL-3B,2018-039A,2026-06-11T10:32:13.596000,14.26740095,.0000809,98.6248,230.0537,80.8461,279.2811,0,U,43437,999,42330,.49397E-4,.76E-6,0
GAOFEN-5 01,2018-043A,2026-06-11T22:10:19.576416,14.60601738,.00030379,98.4566,134.3996,92.8645,267.2903,0,U,43461,999,43092,.63214999E-4,.258E-5,0
