SKYSAT-C1               
1 41601U 16040C   26162.87521254  .00008251  00000+0  23586-3 0  9996
2 41601  96.9571 194.8831 0003895  68.4329 291.7331 15.36210820557058
LAPAN-A3                
1 41603U 16040E   26162.96954556  .00003159  00000+0  10108-3 0  9991
2 41603  97.1483 159.2866 0011461  42.9875 317.2261 15.33071611554018
GAOFEN-3                
1 41727U 16049A   26162.95000172 -.00000132  00000+0 -26795-4 0  9992
2 41727  98.4014 170.8148 0001282  99.6147 260.5187 14.42214390517896
SKYSAT-C4               
1 41771U 16058B   26162.96860149  .00015370  00000+0  29125-3 0  9997
2 41771  96.9177 184.9596 0000991 117.9862 242.1491 15.48424106544669
SKYSAT-C5               
1 41772U 16058C   26162.69123457  .00007020  00000+0  21302-3 0  9994
2 41772  97.0478 203.5767 0001616 351.6137   8.5079 15.34391815542907
SKYSAT-C2               
1 41773U 16058D   26162.80836990  .00011357  00000+0  26862-3 0  9995
2 41773  97.0174 185.1057 0005028  82.5732 277.6088 15.41948031544222
SKYSAT-C3               
1 41774U 16058E   26162.53550163  .00020600  00000+0  33990-3 0  9992
2 41774  96.9012 193.6007 0001751  86.2844 273.8610 15.52297681545236
ALSAT-1B                
1 41785U 16059C   26163.00699507  .00000621  00000+0  10573-3 0  9997
2 41785  97.7753 171.9944 0007826 239.2363 120.8075 14.72272044519811
PATHFINDER 1            
1 41787U 16059E   26162.95507917  .00000468  00000+0  90094-4 0  9991
2 41787  97.8166 162.4674 0027420 220.7547 139.1608 14.67657157518942
SCATSAT 1               
1 41790U 16059H   26162.73519479  .00000882  00000+0  12282-3 0  9999
2 41790  98.1191 226.4449 0053251 265.5339  93.9787 14.79514080100780
GOKTURK 1A              
1 41875U 16073A   26162.91022037  .00000406  00000+0  88725-4 0  9996
2 41875  98.1260  57.6673 0001454  77.7485 282.3879 14.62771087508059
RESOURCESAT-2A          
1 41877U 16074A   26162.93290045 -.00000224  00000+0 -82144-4 0  9996
2 41877  98.7527 236.4800 0003375  93.4390 266.7173 14.21613628493558
CARTOSAT-2D             
1 41948U 17008A   26162.95533212  .00003290  00000+0  15912-3 0  9993
2 41948  97.4117 222.3587 0003579 253.9327 106.1514 15.19293103516780
SENTINEL-2B             
1 42063U 17013A   26162.96273203  .00000051  00000+0  35937-4 0  9992
2 42063  98.5692 237.8107 0001190  86.8052 273.3267 14.30815329483892
FORMOSAT-5              
1 42920U 17049A   26162.88064937  .00000116  00000+0  40450-4 0  9994
2 42920  98.2253 238.3081 0012704  98.9587 261.3046 14.50896839465902
SENTINEL-5P             
1 42969U 17064A   26162.77445736  .00000021  00000+0  30961-4 0  9993
2 42969  98.7925 104.9442 0000983  83.5651 276.5637 14.19518071448799
SKYSAT-C11              
1 42987U 17068A   26162.91833448  .00024501  00000+0  33268-3 0  9995
2 42987  97.4339 311.5213 0000870  88.8932 271.2423 15.57622956482425
SKYSAT-C10              
1 42988U 17068B   26162.88027253  .00008538  00000+0  25747-3 0  9996
2 42988  97.4491 299.6765 0001191  93.5302 266.6078 15.34549133481540
SKYSAT-C9               
1 42989U 17068C   26162.91600567  .00012415  00000+0  29837-3 0  9999
2 42989  97.4411 300.5973 0009165 149.7724 210.4053 15.41431460481942
SKYSAT-C8               
1 42990U 17068D   26162.92477680  .00009762  00000+0  27305-3 0  9999
2 42990  97.4507 299.5011 0001524  97.0861 263.0557 15.36873362481508
SKYSAT-C7               
1 42991U 17068E   26162.85310981  .00009952  00000+0  27861-3 0  9990
2 42991  97.4520 300.4177 0007133 122.0176 238.1762 15.36820746481553
SKYSAT-C6               
1 42992U 17068F   26162.92883997  .00008476  00000+0  25907-3 0  9990
2 42992  97.4555 300.4834 0004184 151.0953 209.0522 15.34119693481517
CARTOSAT-2F             
1 43111U 18004A   26162.93915716  .00003088  00000+0  15012-3 0  9991
2 43111  97.4796 222.6246 0000306 289.5049  70.6152 15.19172174466537
GAOFEN-1 02             
1 43259U 18031A   26162.94460023  .00000468  00000+0  74701-4 0  9991
2 43259  98.0531 225.4862 0004139  46.5089 313.6465 14.76449319441925
GAOFEN-1 03             
1 43260U 18031B   26162.92279150  .00000596  00000+0  93047-4 0  9996
2 43260  98.0524 225.3234 0003816  89.5483 270.6164 14.76461451441915
GAOFEN-1 04             
1 43262U 18031D   26162.96626142  .00000372  00000+0  60821-4 0  9995
2 43262  98.0533 225.5566 0002258  87.1618 272.9850 14.76471152441916
SENTINEL-3B             
1 43437U 18039A   26162.43904625  .00000076  00000+0  49397-4 0  9990
2 43437  98.6248 230.0537 0000809  80.8461 279.2811 14.26740095423304
GAOFEN-5 01             
1 43461U 18043A   26162.92383769  .00000258  00000+0  63215-4 0  9993
2 43461  98.4566 134.3996 0003037  92.8645 267.2903 14.60601738430923
